NORAD_CAT_ID,OBJECT_NAME,OBJECT_TYPE,EPOCH,MEAN_MOTION,ECCENTRICITY,INCLINATION,RA_OF_ASC_NODE,ARG_OF_PERICENTER,MEAN_ANOMALY,BSTAR,MEAN_MOTION_DOT,MEAN_MOTION_DDOT,TLE_LINE0,TLE_LINE1,TLE_LINE2,SEMIMAJOR_AXIS,PERIOD,APOGEE,PERIGEE,DECAYED
56783.0,STARLINK-6357,PAYLOAD,2023-11-02 14:00:01,15.69939091,0.0003313,70.0001,336.6395,279.2306,89.8376,-0.00022348,-0.00027014,0.0,0 STARLINK-6357,1 56783U 23078S   23306.58334491 -.00027014  00000-0 -22348-3 0  9998,2 56783  70.0001 336.6395 0003313 279.2306  89.8376 15.69939091 24686,6737.208,91.723,361.305,356.841,0.0
56783.0,STARLINK-6357,PAYLOAD,2023-11-02 22:00:01,15.69878817,0.0003325,70.0005,335.7022,272.3198,180.1709,0.00060369,0.00072872,0.0,0 STARLINK-6357,1 56783U 23078S   23306.91668981  .00072872  00000-0  60369-3 0  9994,2 56783  70.0005 335.7022 0003325 272.3198 180.1709 15.69878817  5999,6737.381,91.727,361.486,357.006,0.0
56783.0,STARLINK-6357,PAYLOAD,2023-11-03 05:15:14,15.69926248,0.0002974,69.9983,334.853,272.7877,87.2978,9.0054e-06,8.7e-06,0.0,0 STARLINK-6357,1 56783U 23078S   23307.21891935  .00000870  00000-0  90054-5 0  9990,2 56783  69.9983 334.8530 0002974 272.7877  87.2978 15.69926248 24787,6737.245,91.724,361.114,357.106,0.0
56783.0,STARLINK-6357,PAYLOAD,2023-11-03 11:22:16,15.69909627,0.0002917,69.9981,334.1355,270.1845,89.9017,-1.1173e-06,-3.47e-06,0.0,0 STARLINK-6357,1 56783U 23078S   23307.47379872 -.00000347  00000-0 -11173-5 0  9995,2 56783  69.9981 334.1355 0002917 270.1845  89.9017 15.69909627 24827,6737.293,91.725,361.123,357.192,0.0
56783.0,STARLINK-6357,PAYLOAD,2023-11-03 19:01:01,15.69908312,0.0003214,69.9982,333.2392,268.4092,91.6736,1.3959e-05,1.465e-05,0.0,0 STARLINK-6357,1 56783U 23078S   23307.79238100  .00001465  00000-0  13959-4 0  9991,2 56783  69.9982 333.2392 0003214 268.4092  91.6736 15.69908312 24619,6737.296,91.725,361.327,356.996,0.0
56783.0,STARLINK-6357,PAYLOAD,2023-11-04 04:11:30,15.69941262,0.000251,69.9992,332.1659,262.7389,97.3522,1.586e-05,1.696e-05,0.0,0 STARLINK-6357,1 56783U 23078S   23308.17466247  .00001696  00000-0  15860-4 0  9998,2 56783  69.9992 332.1659 0002510 262.7389  97.3522 15.69941262 24930,6737.202,91.723,360.758,357.376,0.0
56783.0,STARLINK-6357,PAYLOAD,2023-11-04 10:18:32,15.69926378,0.0002692,69.9999,331.4494,261.9605,98.1286,3.6876e-07,-1.68e-06,0.0,0 STARLINK-6357,1 56783U 23078S   23308.42954110 -.00000168  00000-0  36876-6 0  9993,2 56783  69.9999 331.4494 0002692 261.9605  98.1286 15.69926378 24970,6737.245,91.724,360.923,357.296,0.0
56783.0,STARLINK-6357,PAYLOAD,2023-11-04 11:50:17,15.69928672,0.0002877,69.9994,331.2695,260.991,99.0961,1.6156e-06,-1.8e-07,0.0,0 STARLINK-6357,1 56783U 23078S   23308.49325509 -.00000018  00000-0  16156-5 0  9996,2 56783  69.9994 331.2695 0002877 260.9910  99.0961 15.69928672 24721,6737.238,91.724,361.041,357.165,0.0
56783.0,STARLINK-6357,PAYLOAD,2023-11-05 04:39:34,15.69908431,0.0002358,69.9989,329.2996,253.7882,106.3055,-1.0966e-05,-1.529e-05,0.0,0 STARLINK-6357,1 56783U 23078S   23309.19415268 -.00001529  00000-0 -10966-4 0  9997,2 56783  69.9989 329.2996 0002358 253.7882 106.3055 15.69908431 25096,6737.296,91.725,360.75,357.572,0.0
56783.0,STARLINK-6357,PAYLOAD,2023-11-05 10:46:34,15.69913723,0.0002309,69.9989,328.5827,277.1275,82.9658,-4.6627e-06,-7.72e-06,0.0,0 STARLINK-6357,1 56783U 23078S   23309.44901611 -.00000772  00000-0 -46627-5 0  9990,2 56783  69.9989 328.5827 0002309 277.1275  82.9658 15.69913723 25136,6737.281,91.725,360.701,357.59,0.0
56783.0,STARLINK-6357,PAYLOAD,2023-11-05 18:25:20,15.69903446,0.0002262,69.999,327.6861,276.2415,83.8522,1.9162e-05,2.09e-05,0.0,0 STARLINK-6357,1 56783U 23078S   23309.76760371  .00002090  00000-0  19162-4 0  9997,2 56783  69.9990 327.6861 0002262 276.2415  83.8522 15.69903446 24927,6737.31,91.725,360.699,357.651,0.0
56783.0,STARLINK-6357,PAYLOAD,2023-11-06 03:35:47,15.6997102,0.0002608,69.9987,326.6118,246.7705,113.3216,3.6332e-05,4.166e-05,0.0,0 STARLINK-6357,1 56783U 23078S   23310.14985371  .00004166  00000-0  36332-4 0  9994,2 56783  69.9987 326.6118 0002608 246.7705 113.3216 15.69971020 25243,6737.117,91.721,360.739,357.225,0.0
56783.0,STARLINK-6357,PAYLOAD,2023-11-06 11:14:40,15.69871285,0.0002578,69.9989,325.7162,257.4663,102.6244,-7.1272e-05,-8.753e-05,0.0,0 STARLINK-6357,1 56783U 23078S   23310.46851854 -.00008753  00000-0 -71272-4 0  9997,2 56783  69.9989 325.7162 0002578 257.4663 102.6244 15.69871285 25291,6737.402,91.727,361.004,357.53,0.0
56783.0,STARLINK-6357,PAYLOAD,2023-11-07 04:03:52,15.69934464,0.0002368,69.9989,323.7459,250.9525,109.1414,1.1155e-05,1.13e-05,0.0,0 STARLINK-6357,1 56783U 23078S   23311.16935707  .00001130  00000-0  11155-4 0  9999,2 56783  69.9989 323.7459 0002368 250.9525 109.1414 15.69934464 25403,6737.221,91.724,360.682,357.491,0.0
56783.0,STARLINK-6357,PAYLOAD,2023-11-07 10:10:51,15.69943915,0.0003146,69.9974,323.0295,265.6443,94.4394,2.6802e-05,3.014e-05,0.0,0 STARLINK-6357,1 56783U 23078S   23311.42421275  .00003014  00000-0  26802-4 0  9996,2 56783  69.9974 323.0295 0003146 265.6443  94.4394 15.69943915 25443,6737.194,91.723,361.179,356.94,0.0
56783.0,STARLINK-6357,PAYLOAD,2023-11-07 17:49:16,15.70199807,0.0003177,69.9989,322.1316,294.8115,65.2751,0.00031569,0.00038356,0.0,0 STARLINK-6357,1 56783U 23078S   23311.74255201  .00038356  00000-0  31569-3 0  9997,2 56783  69.9989 322.1316 0003177 294.8115  65.2751 15.70199807 25490,6736.462,91.708,360.468,356.187,0.0
56783.0,STARLINK-6357,PAYLOAD,2023-11-08 10:38:11,15.70356306,0.0002499,69.9986,320.1606,330.0892,30.0161,0.00035331,0.00043254,0.0,0 STARLINK-6357,1 56783U 23078S   23312.44319005  .00043254  00000-0  35331-3 0  9992,2 56783  69.9986 320.1606 0002499 330.0892  30.0161 15.70356306 25605,6736.015,91.699,359.563,356.197,0.0
56783.0,STARLINK-6357,PAYLOAD,2023-11-09 09:35:17,15.69820708,0.0003561,69.9977,317.4752,265.7908,94.2881,-0.00015203,-0.00018376,0.0,0 STARLINK-6357,1 56783U 23078S   23313.39950328 -.00018376  00000-0 -15203-3 0  9991,2 56783  69.9977 317.4752 0003561 265.7908  94.2881 15.69820708 25756,6737.547,91.73,361.811,357.013,0.0
56783.0,STARLINK-6357,PAYLOAD,2023-11-09 23:21:10,15.69787971,0.0003556,69.9972,315.8641,252.0204,108.0605,-0.0001123,-0.00013619,0.0,0 STARLINK-6357,1 56783U 23078S   23313.97303750 -.00013619  00000-0 -11230-3 0  9997,2 56783  69.9972 315.8641 0003556 252.0204 108.0605 15.69787971 25844,6737.641,91.732,361.902,357.11,0.0
56783.0,STARLINK-6357,PAYLOAD,2023-11-10 08:31:15,15.70235045,0.0012573,69.998,314.7876,339.2951,20.7733,0.0004114,0.00050402,0.0,0 STARLINK-6357,1 56783U 23078S   23314.35503788  .00050402  00000-0  41140-3 0  9995,2 56783  69.9980 314.7876 0012573 339.2951  20.7733 15.70235045 25908,6736.362,91.706,366.696,349.757,0.0
56783.0,STARLINK-6357,PAYLOAD,2023-11-10 10:05:15,15.68605551,0.0003241,69.9977,314.614,256.3133,103.7701,-0.0013617,-0.00152501,0.0,0 STARLINK-6357,1 56783U 23078S   23314.42032350 -.00152501  00000-0 -13617-2 0  9997,2 56783  69.9977 314.6140 0003241 256.3133 103.7701 15.68605551 25659,6741.026,91.801,365.076,360.706,0.0
56783.0,STARLINK-6357,PAYLOAD,2023-11-10 20:00:01,15.66785641,0.0003349,69.9995,313.4559,264.5453,268.2215,-0.0088398,-0.00845392,0.0,0 STARLINK-6357,1 56783U 23078S   23314.83334491 -.00845392  00000-0 -88398-2 0  9998,2 56783  69.9995 313.4559 0003349 264.5453 268.2215 15.66785641 25974,6746.245,91.908,370.369,365.851,0.0
56783.0,STARLINK-6357,PAYLOAD,2023-11-10 22:00:00,15.66629975,0.0003446,69.9994,313.2228,262.0593,20.5797,-0.0089321,-0.00848549,0.0,0 STARLINK-6357,1 56783U 23078S   23314.91667824 -.00848549  00000-0 -89321-2 0  9990,2 56783  69.9994 313.2228 0003446 262.0593  20.5797 15.66629975  6048,6746.692,91.917,370.882,366.232,0.0
56783.0,STARLINK-6357,PAYLOAD,2023-11-11 04:00:00,15.66183796,0.0003388,69.9997,312.5234,263.9677,348.002,-0.009934,-0.0093314,0.0,0 STARLINK-6357,1 56783U 23078S   23315.16667824 -.00933140  00000-0 -99340-2 0  9992,2 56783  69.9997 312.5234 0003388 263.9677 348.0020 15.66183796 26032,6747.973,91.943,372.125,367.552,0.0
56783.0,STARLINK-6357,PAYLOAD,2023-11-11 14:00:01,15.65368822,0.0003298,69.9993,311.3591,270.5107,169.3842,-0.010329,-0.00938393,0.0,0 STARLINK-6357,1 56783U 23078S   23315.58334491 -.00938393  00000-0 -10329-1 0  9993,2 56783  69.9993 311.3591 0003298 270.5107 169.3842 15.65368822  5962,6750.315,91.991,374.406,369.954,0.0
56783.0,STARLINK-6357,PAYLOAD,2023-11-11 22:00:01,15.64678286,0.0003265,69.9996,310.4289,262.5104,254.9172,-0.0097353,-0.00854344,0.0,0 STARLINK-6357,1 56783U 23078S   23315.91668981 -.00854344  00000-0 -97353-2 0  9990,2 56783  69.9996 310.4289 0003265 262.5104 254.9172 15.64678286  6012,6752.301,92.032,376.371,371.962,0.0
56783.0,STARLINK-6357,PAYLOAD,2023-11-12 12:00:02,15.63561639,0.0003356,69.9989,308.8029,268.3055,292.7903,-0.010759,-0.0091216,0.0,0 STARLINK-6357,1 56783U 23078S   23316.50002315 -.00912160  00000-0 -10759-1 0  9994,2 56783  69.9989 308.8029 0003356 268.3055 292.7903 15.63561639 26237,6755.516,92.097,379.648,375.113,0.0
56783.0,STARLINK-6357,PAYLOAD,2023-11-12 14:00:01,15.63416236,0.0003516,69.999,308.5708,267.0058,42.9208,-0.011283,-0.00947643,0.0,0 STARLINK-6357,1 56783U 23078S   23316.58334491 -.00947643  00000-0 -11283-1 0  9992,2 56783  69.9990 308.5708 0003516 267.0058  42.9208 15.63416236  5880,6755.934,92.106,380.175,375.424,0.0
56783.0,STARLINK-6357,PAYLOAD,2023-11-12 22:00:00,15.62719155,0.0003518,69.9992,307.6431,261.8521,123.196,-0.010479,-0.00863867,0.0,0 STARLINK-6357,1 56783U 23078S   23316.91667824 -.00863867  00000-0 -10479-1 0  9999,2 56783  69.9992 307.6431 0003518 261.8521 123.1960 15.62719155  5932,6757.943,92.147,382.186,377.431,0.0
56783.0,STARLINK-6357,PAYLOAD,2023-11-13 04:00:00,15.62276359,0.0003532,69.9995,306.9478,263.9178,86.9408,-0.011773,-0.00945715,0.0,0 STARLINK-6357,1 56783U 23078S   23317.16667824 -.00945715  00000-0 -11773-1 0  9998,2 56783  69.9995 306.9478 0003532 263.9178  86.9408 15.62276359 26340,6759.22,92.173,383.473,378.698,0.0
